OBJECT_NAME,OBJECT_ID,EPOCH,MEAN_MOTION,ECCENTRICITY,INCLINATION,RA_OF_ASC_NODE,ARG_OF_PERICENTER,MEAN_ANOMALY,EPHEMERIS_TYPE,CLASSIFICATION_TYPE,NORAD_CAT_ID,ELEMENT_SET_NO,REV_AT_EPOCH,BSTAR,MEAN_MOTION_DOT,MEAN_MOTION_DDOT
ASTRA 2G,2014-089A,2026-07-15T13:30:14.408928,1.00268388,.00044896,0.0525,27.8182,46.8179,89.5247,0,U,40364,999,4225,0,.139E-5,0
FENGYUN 2G,2014-090A,2026-07-15T16:03:00.204768,1.00280690,.00042883,5.7079,72.4671,171.8076,29.3146,0,U,40367,999,4228,0,-.315E-5,0
MUOS-3,2015-002A,2026-07-14T09:55:09.621120,1.00269764,.00534929,4.5717,43.6246,177.3566,204.5345,0,U,40374,999,4186,0,-.139E-5,0
INMARSAT 5-F2,2015-005A,2026-07-14T01:10:44.700672,1.00271790,.00002198,0.0177,29.1654,42.1473,183.2861,0,U,40384,999,4126,0,-.291E-5,0
ABS-3A,2015-010A,2026-07-14T03:08:17.232000,1.00275029,.00017603,0.0138,33.2338,40.5028,262.3603,0,U,40424,999,4164,0,-.32E-6,0
EUTELSAT 115 WEST B,2015-010B,2026-07-14T22:51:00.245088,1.00269769,.0000379,0.0069,194.9681,256.3601,69.3131,0,U,40425,999,4166,0,-.33E-6,0
EXPRESS-AM7,2015-012A,2026-07-15T15:16:16.967136,1.00270552,.00027368,0.0171,42.5805,78.8772,81.0658,0,U,40505,999,4129,0,.141E-5,0
BEIDOU-3S IGSO-1S,2015-019A,2026-07-02T19:12:21.705408,1.00680073,.00768606,49.1798,295.2769,219.1125,144.2493,0,U,40549,999,4123,0,-.19E-5,0
THOR 7,2015-022A,2026-07-15T13:22:00.199200,1.00273161,.00022099,0.0557,237.5585,237.5755,18.1082,0,U,40613,999,4110,0,-.18E-6,0
TURKMENALEM52E/MONACOSAT,2015-023A,2026-07-15T15:19:39.144000,1.00271383,.00026317,0.0324,83.8729,38.5898,92.9300,0,U,40617,999,4113,0,.94E-6,0
DIRECTV 15,2015-026A,2026-07-14T16:20:59.066880,1.00271323,.00000994,0.0176,71.4979,242.5429,120.8693,0,U,40663,999,4073,0,-.111E-5,0
SKY MEXICO-1,2015-026B,2026-07-15T12:59:41.388864,1.00269990,.00023876,0.0161,41.0040,95.2803,273.2137,0,U,40664,999,4073,0,-.244E-5,0
METEOSAT-11 (MSG-4),2015-034A,2026-07-15T06:34:11.060832,1.00271884,.0002168,3.2692,70.9316,354.2081,335.7782,0,U,40732,999,749,0,.5E-6,0
STAR ONE C4,2015-034B,2026-07-15T13:01:56.173728,1.00269104,.0001299,0.0327,323.8661,133.3514,321.6342,0,U,40733,999,4029,0,-.275E-5,0
WGS F7 (USA 263),2015-036A,2026-07-15T13:38:38.683392,1.00270070,.00000351,0.0165,41.0326,129.0200,143.0146,0,U,40746,999,4015,0,.7E-7,0
INTELSAT 34 (IS-34),2015-039A,2026-07-14T06:18:31.912704,1.00271009,.00005547,0.0110,352.6276,9.3806,329.2648,0,U,40874,999,3990,0,-.292E-5,0
EUTELSAT 8 WEST B,2015-039B,2026-07-15T09:54:31.823712,1.00271829,.00037903,0.0639,348.9956,119.9069,324.9924,0,U,40875,999,3994,0,-.75E-6,0
GSAT-6,2015-041A,2026-07-15T13:45:45.367200,1.00273149,.00030046,1.9899,82.2389,28.7441,111.3740,0,U,40880,999,3988,0,-.172E-5,0
INMARSAT 5-F3,2015-042A,2026-07-14T05:42:52.664256,1.00271087,.00004233,0.0175,36.2785,155.0311,6.0947,0,U,40882,999,3984,0,.43E-6,0
MUOS-4,2015-044A,2026-07-15T13:43:38.069760,1.00271266,.00565056,4.3820,42.3964,3.4581,168.4514,0,U,40887,999,3984,0,-.104E-5,0
TJS-1,2015-046A,2026-07-15T14:06:23.666688,1.00271383,.00050504,0.3946,84.7527,19.3205,195.9833,0,U,40892,999,3985,0,-.166E-5,0
EXPRESS-AM8,2015-048A,2026-07-15T15:00:40.963104,1.00272281,.00002197,0.0262,294.4550,54.1762,155.9981,0,U,40895,999,3963,0,-.122E-5,0
BEIDOU-3S IGSO-2S,2015-053A,2026-07-15T15:31:15.530592,1.00252741,.00662513,49.1781,258.4418,193.1557,168.0446,0,U,40938,999,3964,0,-.94E-6,0
SKY MUSTER 1 (NBN1A),2015-054A,2026-07-15T14:02:09.074400,1.00269761,.00016398,0.0167,30.3681,89.9556,163.8902,0,U,40940,999,3954,0,0,0
ARSAT 2,2015-054B,2026-07-15T12:58:48.972576,1.00270107,.00018583,0.0346,292.5343,174.6174,299.9294,0,U,40941,999,3958,0,-.235E-5,0
MORELOS 3,2015-056A,2026-07-15T00:51:19.607904,1.00273114,.00004176,3.2097,15.7758,149.4607,27.4052,0,U,40946,999,3956,0,-.53E-6,0
APSTAR-9,2015-059A,2026-07-15T15:54:10.670400,1.00271685,.00030965,0.0254,48.8119,138.6203,126.6324,0,U,40982,999,3940,0,-.276E-5,0
TURKSAT 4B,2015-060A,2026-07-15T15:19:01.704288,1.00275634,.00021968,0.0448,245.7728,234.5857,92.8587,0,U,40984,999,3938,0,.104E-5,0
ZHONGXING-2C,2015-063A,2026-07-15T18:59:36.019968,1.00276653,.0008048,0.3457,88.5175,98.6583,134.8077,0,U,41021,999,3926,0,-.335E-5,0
GSAT-15,2015-065A,2026-07-14T08:43:42.352896,1.00267881,.00035804,0.0277,63.4769,29.8725,63.3157,0,U,41028,999,3907,0,0,0
BADR-7 (ARABSAT-6B),2015-065B,2026-07-15T11:46:46.143840,1.00275469,.00051673,0.0159,241.4528,321.5202,293.1007,0,U,41029,999,3905,0,0,0
LAOSAT 1,2015-067A,2026-07-15T14:00:22.974336,1.00264754,.00021861,0.0169,266.6836,158.5444,206.7954,0,U,41034,999,3914,0,0,0
