ASTRA 2G                
1 40364U 14089A   26196.56266677  .00000139  00000+0  00000+0 0  9999
2 40364   0.0525  27.8182 0004489  46.8179  89.5247  1.00268388 42253
FENGYUN 2G              
1 40367U 14090A   26196.66875237 -.00000315  00000+0  00000+0 0  9990
2 40367   5.7079  72.4671 0004288 171.8076  29.3146  1.00280690 42286
MUOS-3                  
1 40374U 15002A   26195.41330580 -.00000139  00000+0  00000+0 0  9995
2 40374   4.5717  43.6246 0053492 177.3566 204.5345  1.00269764 41864
INMARSAT 5-F2           
1 40384U 15005A   26195.04912848 -.00000291  00000+0  00000+0 0  9990
2 40384   0.0177  29.1654 0000219  42.1473 183.2861  1.00271790 41265
ABS-3A                  
1 40424U 15010A   26195.13075500 -.00000032  00000+0  00000+0 0  9999
2 40424   0.0138  33.2338 0001760  40.5028 262.3603  1.00275029 41646
EUTELSAT 115 WEST B     
1 40425U 15010B   26195.95208617 -.00000033  00000+0  00000+0 0  9998
2 40425   0.0069 194.9681 0000379 256.3601  69.3131  1.00269769 41662
EXPRESS-AM7             
1 40505U 15012A   26196.63630749  .00000141  00000+0  00000+0 0  9999
2 40505   0.0171  42.5805 0002736  78.8772  81.0658  1.00270552 41292
BEIDOU-3S IGSO-1S       
1 40549U 15019A   26183.80025122 -.00000190  00000+0  00000+0 0  9997
2 40549  49.1798 295.2769 0076860 219.1125 144.2493  1.00680073 41232
THOR 7                  
1 40613U 15022A   26196.55694675 -.00000018  00000+0  00000+0 0  9993
2 40613   0.0557 237.5585 0002209 237.5755  18.1082  1.00273161 41102
TURKMENALEM52E/MONACOSAT
1 40617U 15023A   26196.63864750  .00000094  00000+0  00000+0 0  9993
2 40617   0.0324  83.8729 0002631  38.5898  92.9300  1.00271383 41136
DIRECTV 15              
1 40663U 15026A   26195.68123920 -.00000111  00000+0  00000+0 0  9999
2 40663   0.0176  71.4979 0000099 242.5429 120.8693  1.00271323 40730
SKY MEXICO-1            
1 40664U 15026B   26196.54145126 -.00000244  00000+0  00000+0 0  9995
2 40664   0.0161  41.0040 0002387  95.2803 273.2137  1.00269990 40731
METEOSAT-11 (MSG-4)     
1 40732U 15034A   26196.27373913  .00000050  00000+0  00000+0 0  9991
2 40732   3.2692  70.9316 0002168 354.2081 335.7782  1.00271884  7492
STAR ONE C4             
1 40733U 15034B   26196.54301127 -.00000275  00000+0  00000+0 0  9990
2 40733   0.0327 323.8661 0001299 133.3514 321.6342  1.00269104 40290
WGS F7 (USA 263)        
1 40746U 15036A   26196.56850328  .00000007  00000+0  00000+0 0  9992
2 40746   0.0165  41.0326 0000035 129.0200 143.0146  1.00270070 40159
INTELSAT 34 (IS-34)     
1 40874U 15039A   26195.26286936 -.00000292  00000+0  00000+0 0  9998
2 40874   0.0110 352.6276 0000554   9.3806 329.2648  1.00271009 39903
EUTELSAT 8 WEST B       
1 40875U 15039B   26196.41286833 -.00000075  00000+0  00000+0 0  9992
2 40875   0.0639 348.9956 0003790 119.9069 324.9924  1.00271829 39940
GSAT-6                  
1 40880U 15041A   26196.57344175 -.00000172  00000+0  00000+0 0  9990
2 40880   1.9899  82.2389 0003004  28.7441 111.3740  1.00273149 39885
INMARSAT 5-F3           
1 40882U 15042A   26195.23810954  .00000043  00000+0  00000+0 0  9994
2 40882   0.0175  36.2785 0000423 155.0311   6.0947  1.00271087 39849
MUOS-4                  
1 40887U 15044A   26196.57196840 -.00000104  00000+0  00000+0 0  9999
2 40887   4.3820  42.3964 0056505   3.4581 168.4514  1.00271266 39844
TJS-1                   
1 40892U 15046A   26196.58777392 -.00000166  00000+0  00000+0 0  9993
2 40892   0.3946  84.7527 0005050  19.3205 195.9833  1.00271383 39858
EXPRESS-AM8             
1 40895U 15048A   26196.62547411 -.00000122  00000+0  00000+0 0  9992
2 40895   0.0262 294.4550 0000219  54.1762 155.9981  1.00272281 39636
BEIDOU-3S IGSO-2S       
1 40938U 15053A   26196.64670753 -.00000094  00000+0  00000+0 0  9992
2 40938  49.1781 258.4418 0066251 193.1557 168.0446  1.00252741 39642
SKY MUSTER 1 (NBN1A)    
1 40940U 15054A   26196.58482725  .00000000  00000+0  00000+0 0  9995
2 40940   0.0167  30.3681 0001639  89.9556 163.8902  1.00269761 39547
ARSAT 2                 
1 40941U 15054B   26196.54084459 -.00000235  00000+0  00000+0 0  9995
2 40941   0.0346 292.5343 0001858 174.6174 299.9294  1.00270107 39580
MORELOS 3               
1 40946U 15056A   26196.03564361 -.00000053  00000+0  00000+0 0  9999
2 40946   3.2097  15.7758 0000417 149.4607  27.4052  1.00273114 39564
APSTAR-9                
1 40982U 15059A   26196.66262350 -.00000276  00000+0  00000+0 0  9991
2 40982   0.0254  48.8119 0003096 138.6203 126.6324  1.00271685 39408
TURKSAT 4B              
1 40984U 15060A   26196.63821417  .00000104  00000+0  00000+0 0  9996
2 40984   0.0448 245.7728 0002196 234.5857  92.8587  1.00275634 39380
ZHONGXING-2C            
1 41021U 15063A   26196.79138912 -.00000335  00000+0  00000+0 0  9997
2 41021   0.3457  88.5175 0008048  98.6583 134.8077  1.00276653 39262
GSAT-15                 
1 41028U 15065A   26195.36368464  .00000000  00000+0  00000+0 0  9993
2 41028   0.0277  63.4769 0003580  29.8725  63.3157  1.00267881 39074
BADR-7 (ARABSAT-6B)     
1 41029U 15065B   26196.49081185  .00000000  00000+0  00000+0 0  9991
2 41029   0.0159 241.4528 0005167 321.5202 293.1007  1.00275469 39056
LAOSAT 1                
1 41034U 15067A   26196.58359924  .00000000  00000+0  00000+0 0  9998
2 41034   0.0169 266.6836 0002186 158.5444 206.7954  1.00264754 39144
